ONEWEB-0697             
1 61603U 24188K   26125.26961446  .00000392  00000+0  10713-2 0  9990
2 61603  87.8921  29.6018 0001390  55.3024 304.8235 13.11416522 78827
ONEWEB-0698             
1 61604U 24188L   26125.17127013  .00000332  00000+0  90193-3 0  9990
2 61604  87.8923  29.6363 0002217  46.6969 313.4344 13.11419436 78838
ONEWEB-0699             
1 61605U 24188M   26125.22625406  .00000711  00000+0  20009-2 0  9995
2 61605  87.8855  44.8150 0001575  57.6884 302.4395 13.10374135 77681
ONEWEB-0700             
1 61606U 24188N   26125.22790975  .00000740  00000+0  20838-2 0  9992
2 61606  87.8870  44.7162 0001251  65.5153 294.6105 13.10373293 77673
ONEWEB-0701             
1 61607U 24188P   26125.24450006  .00000041  00000+0  81000-4 0  9997
2 61607  87.8848  44.8098 0001509  52.0200 308.1064 13.10370776 77687
ONEWEB-0702             
1 61608U 24188Q   26125.21703555 -.00000465  00000+0 -13472-2 0  9993
2 61608  87.8937  29.5246 0001086  49.8926 310.2297 13.11414323 78851
ONEWEB-0704             
1 61609U 24188R   26125.23289424  .00000554  00000+0  15521-2 0  9994
2 61609  87.8867  44.7964 0000901  53.4304 306.6906 13.10370100 77663
ONEWEB-0705             
1 61610U 24188S   26125.23787444  .00000447  00000+0  12444-2 0  9993
2 61610  87.8862  44.8031 0001008 112.3600 247.7635 13.10368162 69838
ONEWEB-0706             
1 61611U 24188T   26125.22293060  .00000649  00000+0  18215-2 0  9995
2 61611  87.8857  44.8141 0001247  73.3588 286.7676 13.10374634 77750
ONEWEB-0707             
1 61612U 24188U   26125.22957463  .00000706  00000+0  19874-2 0  9996
2 61612  87.8861  44.8044 0001307  70.8535 289.2733 13.10372442 77699
ONEWEB-0708             
1 61613U 24188V   26125.24782145 -.00000089  00000+0 -29052-3 0  9998
2 61613  87.8849  44.8231 0001662  96.5452 263.5864 13.10370660 77679
