[{"OBJECT_NAME":"ONEWEB-0697","OBJECT_ID":"2024-188K","EPOCH":"2026-05-05T06:28:14.689344","MEAN_MOTION":13.11416522,"ECCENTRICITY":0.000139,"INCLINATION":87.8921,"RA_OF_ASC_NODE":29.6018,"ARG_OF_PERICENTER":55.3024,"MEAN_ANOMALY":304.8235,"EPHEMERIS_TYPE":0,"CLASSIFICATION_TYPE":"U","NORAD_CAT_ID":61603,"ELEMENT_SET_NO":999,"REV_AT_EPOCH":7882,"BSTAR":0.0010713,"MEAN_MOTION_DOT":3.92e-06,"MEAN_MOTION_DDOT":0.0},{"OBJECT_NAME":"ONEWEB-0698","OBJECT_ID":"2024-188L","EPOCH":"2026-05-05T04:06:37.739232","MEAN_MOTION":13.11419436,"ECCENTRICITY":0.0002217,"INCLINATION":87.8923,"RA_OF_ASC_NODE":29.6363,"ARG_OF_PERICENTER":46.6969,"MEAN_ANOMALY":313.4344,"EPHEMERIS_TYPE":0,"CLASSIFICATION_TYPE":"U","NORAD_CAT_ID":61604,"ELEMENT_SET_NO":999,"REV_AT_EPOCH":7883,"BSTAR":0.00090193,"MEAN_MOTION_DOT":3.32e-06,"MEAN_MOTION_DDOT":0.0},{"OBJECT_NAME":"ONEWEB-0699","OBJECT_ID":"2024-188M","EPOCH":"2026-05-05T05:25:48.350784","MEAN_MOTION":13.10374135,"ECCENTRICITY":0.0001575,"INCLINATION":87.8855,"RA_OF_ASC_NODE":44.815,"ARG_OF_PERICENTER":57.6884,"MEAN_ANOMALY":302.4395,"EPHEMERIS_TYPE":0,"CLASSIFICATION_TYPE":"U","NORAD_CAT_ID":61605,"ELEMENT_SET_NO":999,"REV_AT_EPOCH":7768,"BSTAR":0.0020009,"MEAN_MOTION_DOT":7.11e-06,"MEAN_MOTION_DDOT":0.0},{"OBJECT_NAME":"ONEWEB-0700","OBJECT_ID":"2024-188N","EPOCH":"2026-05-05T05:28:11.402400","MEAN_MOTION":13.10373293,"ECCENTRICITY":0.0001251,"INCLINATION":87.887,"RA_OF_ASC_NODE":44.7162,"ARG_OF_PERICENTER":65.5153,"MEAN_ANOMALY":294.6105,"EPHEMERIS_TYPE":0,"CLASSIFICATION_TYPE":"U","NORAD_CAT_ID":61606,"ELEMENT_SET_NO":999,"REV_AT_EPOCH":7767,"BSTAR":0.0020838000000000002,"MEAN_MOTION_DOT":7.4e-06,"MEAN_MOTION_DDOT":0.0},{"OBJECT_NAME":"ONEWEB-0701","OBJECT_ID":"2024-188P","EPOCH":"2026-05-05T05:52:04.805184","MEAN_MOTION":13.10370776,"ECCENTRICITY":0.0001509,"INCLINATION":87.8848,"RA_OF_ASC_NODE":44.8098,"ARG_OF_PERICENTER":52.02,"MEAN_ANOMALY":308.1064,"EPHEMERIS_TYPE":0,"CLASSIFICATION_TYPE":"U","NORAD_CAT_ID":61607,"ELEMENT_SET_NO":999,"REV_AT_EPOCH":7768,"BSTAR":8.1e-05,"MEAN_MOTION_DOT":4.1e-07,"MEAN_MOTION_DDOT":0.0},{"OBJECT_NAME":"ONEWEB-0702","OBJECT_ID":"2024-188Q","EPOCH":"2026-05-05T05:12:31.871520","MEAN_MOTION":13.11414323,"ECCENTRICITY":0.0001086,"INCLINATION":87.8937,"RA_OF_ASC_NODE":29.5246,"ARG_OF_PERICENTER":49.8926,"MEAN_ANOMALY":310.2297,"EPHEMERIS_TYPE":0,"CLASSIFICATION_TYPE":"U","NORAD_CAT_ID":61608,"ELEMENT_SET_NO":999,"REV_AT_EPOCH":7885,"BSTAR":-0.0013472,"MEAN_MOTION_DOT":-4.65e-06,"MEAN_MOTION_DDOT":0.0},{"OBJECT_NAME":"ONEWEB-0704","OBJECT_ID":"2024-188R","EPOCH":"2026-05-05T05:35:22.062336","MEAN_MOTION":13.103701,"ECCENTRICITY":9.01e-05,"INCLINATION":87.8867,"RA_OF_ASC_NODE":44.7964,"ARG_OF_PERICENTER":53.4304,"MEAN_ANOMALY":306.6906,"EPHEMERIS_TYPE":0,"CLASSIFICATION_TYPE":"U","NORAD_CAT_ID":61609,"ELEMENT_SET_NO":999,"REV_AT_EPOCH":7766,"BSTAR":0.0015520999999999998,"MEAN_MOTION_DOT":5.54e-06,"MEAN_MOTION_DDOT":0.0},{"OBJECT_NAME":"ONEWEB-0705","OBJECT_ID":"2024-188S","EPOCH":"2026-05-05T05:42:32.351616","MEAN_MOTION":13.10368162,"ECCENTRICITY":0.0001008,"INCLINATION":87.8862,"RA_OF_ASC_NODE":44.8031,"ARG_OF_PERICENTER":112.36,"MEAN_ANOMALY":247.7635,"EPHEMERIS_TYPE":0,"CLASSIFICATION_TYPE":"U","NORAD_CAT_ID":61610,"ELEMENT_SET_NO":999,"REV_AT_EPOCH":6983,"BSTAR":0.0012443999999999999,"MEAN_MOTION_DOT":4.47e-06,"MEAN_MOTION_DDOT":0.0},{"OBJECT_NAME":"ONEWEB-0706","OBJECT_ID":"2024-188T","EPOCH":"2026-05-05T05:21:01.203840","MEAN_MOTION":13.10374634,"ECCENTRICITY":0.0001247,"INCLINATION":87.8857,"RA_OF_ASC_NODE":44.8141,"ARG_OF_PERICENTER":73.3588,"MEAN_ANOMALY":286.7676,"EPHEMERIS_TYPE":0,"CLASSIFICATION_TYPE":"U","NORAD_CAT_ID":61611,"ELEMENT_SET_NO":999,"REV_AT_EPOCH":7775,"BSTAR":0.0018215000000000002,"MEAN_MOTION_DOT":6.49e-06,"MEAN_MOTION_DDOT":0.0},{"OBJECT_NAME":"ONEWEB-0707","OBJECT_ID":"2024-188U","EPOCH":"2026-05-05T05:30:35.248032","MEAN_MOTION":13.10372442,"ECCENTRICITY":0.0001307,"INCLINATION":87.8861,"RA_OF_ASC_NODE":44.8044,"ARG_OF_PERICENTER":70.8535,"MEAN_ANOMALY":289.2733,"EPHEMERIS_TYPE":0,"CLASSIFICATION_TYPE":"U","NORAD_CAT_ID":61612,"ELEMENT_SET_NO":999,"REV_AT_EPOCH":7769,"BSTAR":0.0019874,"MEAN_MOTION_DOT":7.06e-06,"MEAN_MOTION_DDOT":0.0},{"OBJECT_NAME":"ONEWEB-0708","OBJECT_ID":"2024-188V","EPOCH":"2026-05-05T05:56:51.773280","MEAN_MOTION":13.1037066,"ECCENTRICITY":0.0001662,"INCLINATION":87.8849,"RA_OF_ASC_NODE":44.8231,"ARG_OF_PERICENTER":96.5452,"MEAN_ANOMALY":263.5864,"EPHEMERIS_TYPE":0,"CLASSIFICATION_TYPE":"U","NORAD_CAT_ID":61613,"ELEMENT_SET_NO":999,"REV_AT_EPOCH":7767,"BSTAR":-0.00029052,"MEAN_MOTION_DOT":-8.9e-07,"MEAN_MOTION_DDOT":0.0}]